{
"type": "FeatureCollection",
"name": "provinces",
"crs": { "type": "name", "properties": { "name": "urn:ogc:def:crs:OGC:1.3:CRS84" } },
"features": [
{ "type": "Feature", "properties": { "dpa_provincia": "16", "provincia": "Pastaza", "area_km2": 30063.002337718153 }, "geometry": { "type": "MultiPolygon", "coordinates": [ [ [ [ -75.5793, -1.551 ], [ -75.8918, -1.3392 ], [ -75.9459, -1.3544 ], [ -76.1096, -1.2738 ], [ -76.3349, -1.3035 ], [ -76.4442, -1.2683 ], [ -76.525, -1.1958 ], [ -76.5132, -1.0611 ], [ -76.6054, -1.0714 ], [ -76.7274, -1.0303 ], [ -76.8804, -1.0649 ], [ -76.9072, -1.1142 ], [ -77.0391, -1.0966 ], [ -77.0701, -1.0118 ], [ -77.4091, -1.0802 ], [ -77.5652, -1.1528 ], [ -77.6898, -1.1436 ], [ -77.8912, -1.2411 ], [ -77.951, -1.2063 ], [ -78.1217, -1.2204 ], [ -78.1167, -1.3261 ], [ -78.1751, -1.4454 ], [ -78.0631, -1.535 ], [ -78.0289, -1.6613 ], [ -77.9192, -1.6622 ], [ -77.8181, -1.9235 ], [ -77.7112, -2.0241 ], [ -77.6291, -2.0414 ], [ -77.3426, -2.1648 ], [ -77.0945, -2.3364 ], [ -76.9921, -2.515 ], [ -76.9183, -2.5648 ], [ -76.7377, -2.5624 ], [ -76.6962, -2.6109 ], [ -76.6408, -2.593 ], [ -76.0517, -2.1574 ], [ -75.8702, -1.9382 ], [ -75.5793, -1.551 ] ] ] ] } },
{ "type": "Feature", "properties": { "dpa_provincia": "04", "provincia": "Carchi", "area_km2": 3740.5839568056031 }, "geometry": { "type": "MultiPolygon", "coordinates": [ [ [ [ -77.5589, 0.6522 ], [ -77.6956, 0.7528 ], [ -77.7594, 0.8457 ], [ -77.8312, 0.8058 ], [ -78.1954, 0.9485 ], [ -78.3021, 1.1884 ], [ -78.3913, 1.16 ], [ -78.4965, 1.2024 ], [ -78.5352, 0.9321 ], [ -78.4526, 0.887 ], [ -78.2207, 0.7404 ], [ -78.139, 0.6202 ], [ -78.0888, 0.4878 ], [ -78.0068, 0.4766 ], [ -77.9157, 0.4038 ], [ -77.81, 0.3735 ], [ -77.8109, 0.4197 ], [ -77.6592, 0.6063 ], [ -77.5589, 0.6522 ] ] ] ] } },
{ "type": "Feature", "properties": { "dpa_provincia": "11", "provincia": "Loja", "area_km2": 11039.275714788671 }, "geometry": { "type": "MultiPolygon", "coordinates": [ [ [ [ -79.432, -4.7433 ], [ -79.3338, -4.6155 ], [ -79.2828, -4.4799 ], [ -79.2076, -4.5087 ], [ -79.1135, -4.4153 ], [ -79.1065, -4.1907 ], [ -79.1627, -4.109 ], [ -79.1253, -3.8805 ], [ -79.1936, -3.7266 ], [ -79.0977, -3.6254 ], [ -79.188, -3.4455 ], [ -79.2859, -3.4717 ], [ -79.3039, -3.366 ], [ -79.461, -3.3378 ], [ -79.4307, -3.4674 ], [ -79.4782, -3.5211 ], [ -79.3683, -3.6378 ], [ -79.4406, -3.8121 ], [ -79.5685, -3.7972 ], [ -79.6073, -3.7525 ], [ -79.7062, -3.828 ], [ -79.9473, -3.8322 ], [ -80.1326, -3.8948 ], [ -80.2957, -4.0219 ], [ -80.4327, -4.0022 ], [ -80.4756, -4.0895 ], [ -80.444, -4.2126 ], [ -80.3069, -4.215 ], [ -80.4449, -4.3865 ], [ -80.3959, -4.4853 ], [ -80.3144, -4.4583 ], [ -80.1868, -4.3459 ], [ -80.0868, -4.3006 ], [ -79.9927, -4.3773 ], [ -79.9115, -4.3932 ], [ -79.805, -4.4935 ], [ -79.6123, -4.4509 ], [ -79.5075, -4.5147 ], [ -79.432, -4.7433 ] ] ] ] } },
{ "type": "Feature", "properties": { "dpa_provincia": "19", "provincia": "Zamora Chinchipe", "area_km2": 10475.0081841469 }, "geometry": { "type": "MultiPolygon", "coordinates": [ [ [ [ -79.432, -4.7433 ], [ -79.4082, -4.8265 ], [ -79.2599, -4.9727 ], [ -79.1545, -4.9617 ], [ -79.0212, -5.0115 ], [ -78.9848, -4.9044 ], [ -78.9205, -4.8598 ], [ -78.897, -4.7288 ], [ -78.828, -4.6437 ], [ -78.673, -4.59 ], [ -78.6303, -4.4163 ], [ -78.6547, -4.357 ], [ -78.5878, -4.1427 ], [ -78.5421, -4.0679 ], [ -78.5624, -3.9794 ], [ -78.4885, -3.9191 ], [ -78.4113, -3.7781 ], [ -78.4238, -3.6891 ], [ -78.3703, -3.526 ], [ -78.6281, -3.5347 ], [ -78.6804, -3.5836 ], [ -78.8249, -3.5489 ], [ -78.9453, -3.3437 ], [ -79.0275, -3.3915 ], [ -79.0977, -3.6254 ], [ -79.1936, -3.7266 ], [ -79.1253, -3.8805 ], [ -79.1627, -4.109 ], [ -79.1065, -4.1907 ], [ -79.1135, -4.4153 ], [ -79.2076, -4.5087 ], [ -79.2828, -4.4799 ], [ -79.3338, -4.6155 ], [ -79.432, -4.7433 ] ] ] ] } },
{ "type": "Feature", "properties": { "dpa_provincia": "07", "provincia": "El Oro", "area_km2": 5818.8271149988514 }, "geometry": { "type": "MultiPolygon", "coordinates": [ [ [ [ -80.004, -3.3282 ], [ -79.9907, -3.2848 ], [ -80.0349, -3.2089 ], [ -80.08, -3.307 ], [ -80.225, -3.346 ], [ -80.1992, -3.4118 ], [ -80.0716, -3.4058 ], [ -80.004, -3.3282 ] ] ], [ [ [ -79.461, -3.3378 ], [ -79.6528, -3.3153 ], [ -79.593, -3.1561 ], [ -79.7604, -3.0709 ], [ -79.8604, -3.0482 ], [ -79.9079, -3.168 ], [ -79.9628, -3.1985 ], [ -79.9802, -3.2826 ], [ -80.0339, -3.4061 ], [ -80.2267, -3.4535 ], [ -80.1803, -3.6552 ], [ -80.1868, -3.7797 ], [ -80.1326, -3.8948 ], [ -79.9473, -3.8322 ], [ -79.7062, -3.828 ], [ -79.6073, -3.7525 ], [ -79.5685, -3.7972 ], [ -79.4406, -3.8121 ], [ -79.3683, -3.6378 ], [ -79.4782, -3.5211 ], [ -79.4307, -3.4674 ], [ -79.461, -3.3378 ] ] ] ] } },
{ "type": "Feature", "properties": { "dpa_provincia": "08", "provincia": "Esmeraldas", "area_km2": 15528.782605283654 }, "geometry": { "type": "MultiPolygon", "coordinates": [ [ [ [ -78.4965, 1.2024 ], [ -78.6444, 1.2789 ], [ -78.6927, 1.3739 ], [ -78.8342, 1.4063 ], [ -78.8859, 1.2534 ], [ -79.0597, 1.2158 ], [ -79.1499, 1.1097 ], [ -79.4358, 1.069 ], [ -79.5477, 1.0017 ], [ -79.7423, 0.9639 ], [ -79.8059, 0.9015 ], [ -79.9591, 0.8271 ], [ -80.0584, 0.8223 ], [ -80.1051, 0.6878 ], [ -80.0173, 0.6218 ], [ -80.0069, 0.5407 ], [ -80.0605, 0.4734 ], [ -79.9759, 0.3644 ], [ -79.9467, 0.2649 ], [ -79.832, 0.3289 ], [ -79.6762, 0.2478 ], [ -79.7132, 0.1912 ], [ -79.5747, 0.1265 ], [ -79.494, 0.0866 ], [ -79.3627, 0.0816 ], [ -79.3148, 0.1703 ], [ -79.3619, 0.2435 ], [ -79.2749, 0.3215 ], [ -79.156, 0.3542 ], [ -79.0441, 0.3098 ], [ -78.9589, 0.3696 ], [ -78.7923, 0.4202 ], [ -78.6495, 0.3877 ], [ -78.5587, 0.5094 ], [ -78.4527, 0.5476 ], [ -78.4332, 0.6103 ], [ -78.5304, 0.7655 ], [ -78.4564, 0.7903 ], [ -78.4526, 0.887 ], [ -78.5352, 0.9321 ], [ -78.4965, 1.2024 ] ] ] ] } },
{ "type": "Feature", "properties": { "dpa_provincia": "10", "provincia": "Imbabura", "area_km2": 4808.3395693381608 }, "geometry": { "type": "MultiPolygon", "coordinates": [ [ [ [ -78.4526, 0.887 ], [ -78.4564, 0.7903 ], [ -78.5304, 0.7655 ], [ -78.4332, 0.6103 ], [ -78.4527, 0.5476 ], [ -78.5587, 0.5094 ], [ -78.6495, 0.3877 ], [ -78.7923, 0.4202 ], [ -78.9589, 0.3696 ], [ -79.0441, 0.3098 ], [ -79.156, 0.3542 ], [ -79.2749, 0.3215 ], [ -79.0703, 0.3108 ], [ -78.9363, 0.2119 ], [ -78.8394, 0.2471 ], [ -78.7157, 0.2213 ], [ -78.4834, 0.2307 ], [ -78.4076, 0.2584 ], [ -78.2626, 0.1335 ], [ -78.1732, 0.128 ], [ -78.0917, 0.1794 ], [ -77.9598, 0.1692 ], [ -77.8362, 0.2689 ], [ -77.81, 0.3735 ], [ -77.9157, 0.4038 ], [ -78.0068, 0.4766 ], [ -78.0888, 0.4878 ], [ -78.139, 0.6202 ], [ -78.2207, 0.7404 ], [ -78.4526, 0.887 ] ] ] ] } },
{ "type": "Feature", "properties": { "dpa_provincia": "21", "provincia": "Sucumbios", "area_km2": 18253.925425345871 }, "geometry": { "type": "MultiPolygon", "coordinates": [ [ [ [ -77.81, 0.3735 ], [ -77.8362, 0.2689 ], [ -77.9598, 0.1692 ], [ -77.8433, 0.0316 ], [ -77.7745, -0.0658 ], [ -77.5843, -0.096 ], [ -77.4748, -0.0159 ], [ -77.4507, -0.1298 ], [ -77.3631, -0.1415 ], [ -77.2958, -0.0526 ], [ -77.1933, -0.0929 ], [ -77.0462, -0.1063 ], [ -76.9009, -0.0814 ], [ -76.7172, -0.3399 ], [ -76.6035, -0.4293 ], [ -76.5477, -0.4093 ], [ -76.3706, -0.5171 ], [ -76.2563, -0.4443 ], [ -76.0687, -0.4451 ], [ -75.9549, -0.5598 ], [ -75.8335, -0.4359 ], [ -75.7365, -0.4138 ], [ -75.6397, -0.4485 ], [ -75.5014, -0.5538 ], [ -75.2418, -0.6383 ], [ -75.2331, -0.5103 ], [ -75.3689, -0.4292 ], [ -75.5362, -0.1492 ], [ -75.5021, -0.1034 ], [ -75.6217, 0.0549 ], [ -75.7463, 0.0481 ], [ -75.8671, 0.1331 ], [ -75.9934, 0.3081 ], [ -76.2583, 0.446 ], [ -76.3969, 0.3896 ], [ -76.3939, 0.2609 ], [ -76.5826, 0.2273 ], [ -76.7225, 0.2926 ], [ -76.8356, 0.2471 ], [ -77.0815, 0.2868 ], [ -77.1153, 0.3726 ], [ -77.2849, 0.3649 ], [ -77.5216, 0.4184 ], [ -77.4816, 0.6531 ], [ -77.5589, 0.6522 ], [ -77.6592, 0.6063 ], [ -77.8109, 0.4197 ], [ -77.81, 0.3735 ] ] ] ] } },
{ "type": "Feature", "properties": { "dpa_provincia": "24", "provincia": "Santa Elena", "area_km2": 3828.961142499244 }, "geometry": { "type": "MultiPolygon", "coordinates": [ [ [ [ -80.5613, -2.5081 ], [ -80.496, -2.5027 ], [ -80.4573, -2.4121 ], [ -80.2386, -2.3142 ], [ -80.2417, -2.1118 ], [ -80.365, -1.9912 ], [ -80.4446, -1.954 ], [ -80.5093, -1.9238 ], [ -80.5797, -1.8063 ], [ -80.5899, -1.6806 ], [ -80.8102, -1.6941 ], [ -80.7255, -1.9205 ], [ -80.7696, -2.1289 ], [ -80.9256, -2.2193 ], [ -80.872, -2.3239 ], [ -80.6735, -2.4093 ], [ -80.5613, -2.5081 ] ] ] ] } },
{ "type": "Feature", "properties": { "dpa_provincia": "23", "provincia": "Santo Domingo de los Tsáchilas", "area_km2": 4137.1120691624592 }, "geometry": { "type": "MultiPolygon", "coordinates": [ [ [ [ -79.5747, 0.1265 ], [ -79.6259, 0.0529 ], [ -79.6101, -0.0525 ], [ -79.512, -0.164 ], [ -79.4108, -0.1899 ], [ -79.405, -0.4025 ], [ -79.4686, -0.5476 ], [ -79.3588, -0.5403 ], [ -79.3486, -0.688 ], [ -79.2993, -0.6953 ], [ -79.1298, -0.5425 ], [ -79.0923, -0.5527 ], [ -79.0001, -0.5055 ], [ -79.0144, -0.4317 ], [ -78.9424, -0.3384 ], [ -78.8337, -0.3426 ], [ -78.748, -0.2388 ], [ -78.9611, -0.1034 ], [ -79.0252, -0.1194 ], [ -79.1137, -0.0337 ], [ -79.3627, 0.0816 ], [ -79.494, 0.0866 ], [ -79.5747, 0.1265 ] ] ] ] } },
{ "type": "Feature", "properties": { "dpa_provincia": "17", "provincia": "Pichincha", "area_km2": 9675.6042305533483 }, "geometry": { "type": "MultiPolygon", "coordinates": [ [ [ [ -79.3627, 0.0816 ], [ -79.1137, -0.0337 ], [ -79.0252, -0.1194 ], [ -78.9611, -0.1034 ], [ -78.748, -0.2388 ], [ -78.8337, -0.3426 ], [ -78.9424, -0.3384 ], [ -78.8118, -0.5337 ], [ -78.7412, -0.5539 ], [ -78.6955, -0.6523 ], [ -78.6055, -0.593 ], [ -78.4135, -0.7109 ], [ -78.3376, -0.6587 ], [ -78.2394, -0.4639 ], [ -78.2489, -0.3991 ], [ -78.1856, -0.2826 ], [ -78.1918, -0.2195 ], [ -77.9296, -0.0906 ], [ -77.8433, 0.0316 ], [ -77.9598, 0.1692 ], [ -78.0917, 0.1794 ], [ -78.1732, 0.128 ], [ -78.2626, 0.1335 ], [ -78.4076, 0.2584 ], [ -78.4834, 0.2307 ], [ -78.7157, 0.2213 ], [ -78.8394, 0.2471 ], [ -78.9363, 0.2119 ], [ -79.0703, 0.3108 ], [ -79.2749, 0.3215 ], [ -79.3619, 0.2435 ], [ -79.3148, 0.1703 ], [ -79.3627, 0.0816 ] ] ] ] } },
{ "type": "Feature", "properties": { "dpa_provincia": "13", "provincia": "Manabi", "area_km2": 19455.743411968266 }, "geometry": { "type": "MultiPolygon", "coordinates": [ [ [ [ -79.9467, 0.2649 ], [ -80.041, 0.3551 ], [ -80.0328, 0.1776 ], [ -80.1358, -0.0379 ], [ -80.297, -0.1833 ], [ -80.3778, -0.2282 ], [ -80.4959, -0.4038 ], [ -80.4358, -0.5624 ], [ -80.536, -0.859 ], [ -80.5904, -0.9297 ], [ -80.8279, -0.9625 ], [ -80.9106, -1.0615 ], [ -80.8468, -1.2138 ], [ -80.7404, -1.3527 ], [ -80.7665, -1.4692 ], [ -80.8497, -1.622 ], [ -80.8102, -1.6941 ], [ -80.5899, -1.6806 ], [ -80.5797, -1.8063 ], [ -80.5093, -1.9238 ], [ -80.4446, -1.954 ], [ -80.4288, -1.8011 ], [ -80.3257, -1.6971 ], [ -80.2386, -1.6879 ], [ -80.1936, -1.4302 ], [ -79.926, -1.1486 ], [ -79.8492, -1.0897 ], [ -79.7372, -0.8952 ], [ -79.61, -0.8563 ], [ -79.6013, -0.761 ], [ -79.4686, -0.5476 ], [ -79.405, -0.4025 ], [ -79.4108, -0.1899 ], [ -79.512, -0.164 ], [ -79.6101, -0.0525 ], [ -79.6259, 0.0529 ], [ -79.5747, 0.1265 ], [ -79.7132, 0.1912 ], [ -79.6762, 0.2478 ], [ -79.832, 0.3289 ], [ -79.9467, 0.2649 ] ] ] ] } },
{ "type": "Feature", "properties": { "dpa_provincia": "01", "provincia": "Azuay", "area_km2": 8066.0680398909271 }, "geometry": { "type": "MultiPolygon", "coordinates": [ [ [ [ -79.0977, -3.6254 ], [ -79.0275, -3.3915 ], [ -78.9453, -3.3437 ], [ -78.9295, -3.2795 ], [ -78.8242, -3.2336 ], [ -78.7, -3.1146 ], [ -78.6207, -2.9117 ], [ -78.5641, -2.6997 ], [ -78.4447, -2.6519 ], [ -78.441, -2.5953 ], [ -78.5684, -2.5643 ], [ -78.6144, -2.6346 ], [ -78.7753, -2.6736 ], [ -78.8137, -2.8117 ], [ -78.905, -2.8412 ], [ -79.047, -2.6888 ], [ -79.0863, -2.7318 ], [ -79.2072, -2.7259 ], [ -79.2717, -2.5681 ], [ -79.3567, -2.5674 ], [ -79.5003, -2.6353 ], [ -79.5402, -2.7554 ], [ -79.5085, -2.8635 ], [ -79.714, -2.9839 ], [ -79.7604, -3.0709 ], [ -79.593, -3.1561 ], [ -79.6528, -3.3153 ], [ -79.461, -3.3378 ], [ -79.3039, -3.366 ], [ -79.2859, -3.4717 ], [ -79.188, -3.4455 ], [ -79.0977, -3.6254 ] ] ] ] } },
{ "type": "Feature", "properties": { "dpa_provincia": "03", "provincia": "Cañar", "area_km2": 3250.6498538935557 }, "geometry": { "type": "MultiPolygon", "coordinates": [ [ [ [ -78.5684, -2.5643 ], [ -78.5709, -2.5539 ], [ -78.6695, -2.4522 ], [ -78.8048, -2.3805 ], [ -78.9084, -2.4093 ], [ -79.0083, -2.3755 ], [ -79.137, -2.2362 ], [ -79.2721, -2.4039 ], [ -79.4195, -2.3464 ], [ -79.4273, -2.4211 ], [ -79.3567, -2.5674 ], [ -79.2717, -2.5681 ], [ -79.2072, -2.7259 ], [ -79.0863, -2.7318 ], [ -79.047, -2.6888 ], [ -78.905, -2.8412 ], [ -78.8137, -2.8117 ], [ -78.7753, -2.6736 ], [ -78.6144, -2.6346 ], [ -78.5684, -2.5643 ] ] ] ] } },
{ "type": "Feature", "properties": { "dpa_provincia": "09", "provincia": "Guayas", "area_km2": 15723.660052900015 }, "geometry": { "type": "MultiPolygon", "coordinates": [ [ [ [ -79.9279, -2.7918 ], [ -79.899, -2.7454 ], [ -80.036, -2.6729 ], [ -80.2138, -2.7449 ], [ -80.2594, -2.8611 ], [ -80.249, -3.0303 ], [ -80.1252, -3.0194 ], [ -80.151, -2.8785 ], [ -80.0402, -2.8566 ], [ -79.9279, -2.7918 ] ] ], [ [ [ -79.8599, -2.4283 ], [ -79.9011, -2.2961 ], [ -80.0065, -2.4213 ], [ -79.8806, -2.5314 ], [ -79.8599, -2.4283 ] ] ], [ [ [ -79.7604, -3.0709 ], [ -79.714, -2.9839 ], [ -79.5085, -2.8635 ], [ -79.5402, -2.7554 ], [ -79.5003, -2.6353 ], [ -79.3567, -2.5674 ], [ -79.4273, -2.4211 ], [ -79.4195, -2.3464 ], [ -79.2721, -2.4039 ], [ -79.137, -2.2362 ], [ -79.1259, -2.1927 ], [ -79.1946, -2.1318 ], [ -79.312, -2.076 ], [ -79.3736, -1.9687 ], [ -79.5237, -1.8779 ], [ -79.6611, -1.915 ], [ -79.8242, -1.7054 ], [ -79.8731, -1.5441 ], [ -79.8692, -1.4384 ], [ -79.7403, -1.1926 ], [ -79.614, -1.0714 ], [ -79.559, -1.0672 ], [ -79.5091, -0.9575 ], [ -79.5136, -0.8486 ], [ -79.61, -0.8563 ], [ -79.7372, -0.8952 ], [ -79.8492, -1.0897 ], [ -79.926, -1.1486 ], [ -80.1936, -1.4302 ], [ -80.2386, -1.6879 ], [ -80.3257, -1.6971 ], [ -80.4288, -1.8011 ], [ -80.4446, -1.954 ], [ -80.365, -1.9912 ], [ -80.2417, -2.1118 ], [ -80.2386, -2.3142 ], [ -80.4573, -2.4121 ], [ -80.496, -2.5027 ], [ -80.5613, -2.5081 ], [ -80.4629, -2.6149 ], [ -80.2873, -2.7329 ], [ -80.2531, -2.6449 ], [ -80.1291, -2.5602 ], [ -80.0664, -2.4614 ], [ -79.9695, -2.2383 ], [ -79.8349, -2.2018 ], [ -79.829, -2.3866 ], [ -79.766, -2.5149 ], [ -79.6937, -2.5582 ], [ -79.7787, -2.6829 ], [ -79.8604, -3.0482 ], [ -79.7604, -3.0709 ] ] ] ] } },
{ "type": "Feature", "properties": { "dpa_provincia": "12", "provincia": "Los Ríos", "area_km2": 7239.5363312951558 }, "geometry": { "type": "MultiPolygon", "coordinates": [ [ [ [ -79.4686, -0.5476 ], [ -79.6013, -0.761 ], [ -79.61, -0.8563 ], [ -79.5136, -0.8486 ], [ -79.5091, -0.9575 ], [ -79.559, -1.0672 ], [ -79.614, -1.0714 ], [ -79.7403, -1.1926 ], [ -79.8692, -1.4384 ], [ -79.8731, -1.5441 ], [ -79.8242, -1.7054 ], [ -79.6611, -1.915 ], [ -79.5237, -1.8779 ], [ -79.3736, -1.9687 ], [ -79.312, -2.076 ], [ -79.1946, -2.1318 ], [ -79.2626, -1.9634 ], [ -79.2273, -1.7385 ], [ -79.2839, -1.6064 ], [ -79.256, -1.5402 ], [ -79.3298, -1.4619 ], [ -79.2859, -1.3849 ], [ -79.3581, -1.2806 ], [ -79.2872, -1.1984 ], [ -79.3349, -1.1167 ], [ -79.3154, -0.9516 ], [ -79.148, -0.7227 ], [ -79.0923, -0.5527 ], [ -79.1298, -0.5425 ], [ -79.2993, -0.6953 ], [ -79.3486, -0.688 ], [ -79.3588, -0.5403 ], [ -79.4686, -0.5476 ] ] ] ] } },
{ "type": "Feature", "properties": { "dpa_provincia": "05", "provincia": "Cotopaxi", "area_km2": 6043.2509628685566 }, "geometry": { "type": "MultiPolygon", "coordinates": [ [ [ [ -79.0923, -0.5527 ], [ -79.148, -0.7227 ], [ -79.3154, -0.9516 ], [ -79.3349, -1.1167 ], [ -79.2872, -1.1984 ], [ -79.0935, -1.1529 ], [ -78.9856, -1.2149 ], [ -78.878, -1.1939 ], [ -78.742, -1.1309 ], [ -78.5773, -1.1204 ], [ -78.4661, -1.0802 ], [ -78.4106, -0.994 ], [ -78.3947, -0.8475 ], [ -78.4135, -0.7109 ], [ -78.6055, -0.593 ], [ -78.6955, -0.6523 ], [ -78.7412, -0.5539 ], [ -78.8118, -0.5337 ], [ -78.9424, -0.3384 ], [ -79.0144, -0.4317 ], [ -79.0001, -0.5055 ], [ -79.0923, -0.5527 ] ] ] ] } },
{ "type": "Feature", "properties": { "dpa_provincia": "02", "provincia": "Bolívar", "area_km2": 3932.1672534803361 }, "geometry": { "type": "MultiPolygon", "coordinates": [ [ [ [ -79.1259, -2.1927 ], [ -79.0324, -2.1195 ], [ -79.0129, -1.7777 ], [ -78.8792, -1.7458 ], [ -78.8458, -1.655 ], [ -78.9014, -1.5874 ], [ -78.883, -1.4676 ], [ -78.9402, -1.3497 ], [ -78.878, -1.1939 ], [ -78.9856, -1.2149 ], [ -79.0935, -1.1529 ], [ -79.2872, -1.1984 ], [ -79.3581, -1.2806 ], [ -79.2859, -1.3849 ], [ -79.3298, -1.4619 ], [ -79.256, -1.5402 ], [ -79.2839, -1.6064 ], [ -79.2273, -1.7385 ], [ -79.2626, -1.9634 ], [ -79.1946, -2.1318 ], [ -79.1259, -2.1927 ] ] ] ] } },
{ "type": "Feature", "properties": { "dpa_provincia": "18", "provincia": "Tungurahua", "area_km2": 3406.3138321136075 }, "geometry": { "type": "MultiPolygon", "coordinates": [ [ [ [ -78.1217, -1.2204 ], [ -78.2244, -1.1412 ], [ -78.3432, -1.1045 ], [ -78.4106, -0.994 ], [ -78.4661, -1.0802 ], [ -78.5773, -1.1204 ], [ -78.742, -1.1309 ], [ -78.878, -1.1939 ], [ -78.9402, -1.3497 ], [ -78.883, -1.4676 ], [ -78.7655, -1.436 ], [ -78.7019, -1.4933 ], [ -78.533, -1.4793 ], [ -78.4939, -1.4307 ], [ -78.3596, -1.5164 ], [ -78.1751, -1.4454 ], [ -78.1167, -1.3261 ], [ -78.1217, -1.2204 ] ] ] ] } },
{ "type": "Feature", "properties": { "dpa_provincia": "06", "provincia": "Chimborazo", "area_km2": 6500.3344041384544 }, "geometry": { "type": "MultiPolygon", "coordinates": [ [ [ [ -78.5709, -2.5539 ], [ -78.5128, -2.5372 ], [ -78.4682, -2.4199 ], [ -78.5432, -2.3412 ], [ -78.4985, -2.2352 ], [ -78.514, -2.1392 ], [ -78.4396, -2.0949 ], [ -78.4891, -1.9834 ], [ -78.402, -1.8543 ], [ -78.4612, -1.7577 ], [ -78.3671, -1.6366 ], [ -78.3596, -1.5164 ], [ -78.4939, -1.4307 ], [ -78.533, -1.4793 ], [ -78.7019, -1.4933 ], [ -78.7655, -1.436 ], [ -78.883, -1.4676 ], [ -78.9014, -1.5874 ], [ -78.8458, -1.655 ], [ -78.8792, -1.7458 ], [ -79.0129, -1.7777 ], [ -79.0324, -2.1195 ], [ -79.1259, -2.1927 ], [ -79.137, -2.2362 ], [ -79.0083, -2.3755 ], [ -78.9084, -2.4093 ], [ -78.8048, -2.3805 ], [ -78.6695, -2.4522 ], [ -78.5709, -2.5539 ] ] ] ] } },
{ "type": "Feature", "properties": { "dpa_provincia": "14", "provincia": "Morona Santiago", "area_km2": 24122.234371394265 }, "geometry": { "type": "MultiPolygon", "coordinates": [ [ [ [ -78.1751, -1.4454 ], [ -78.3596, -1.5164 ], [ -78.3671, -1.6366 ], [ -78.4612, -1.7577 ], [ -78.402, -1.8543 ], [ -78.4891, -1.9834 ], [ -78.4396, -2.0949 ], [ -78.514, -2.1392 ], [ -78.4985, -2.2352 ], [ -78.5432, -2.3412 ], [ -78.4682, -2.4199 ], [ -78.5128, -2.5372 ], [ -78.5709, -2.5539 ], [ -78.5684, -2.5643 ], [ -78.441, -2.5953 ], [ -78.4447, -2.6519 ], [ -78.5641, -2.6997 ], [ -78.6207, -2.9117 ], [ -78.7, -3.1146 ], [ -78.8242, -3.2336 ], [ -78.9295, -3.2795 ], [ -78.9453, -3.3437 ], [ -78.8249, -3.5489 ], [ -78.6804, -3.5836 ], [ -78.6281, -3.5347 ], [ -78.3703, -3.526 ], [ -78.3362, -3.3777 ], [ -78.1946, -3.3641 ], [ -77.9569, -3.0887 ], [ -77.8245, -2.9864 ], [ -77.2206, -2.7903 ], [ -76.6962, -2.6109 ], [ -76.7377, -2.5624 ], [ -76.9183, -2.5648 ], [ -76.9921, -2.515 ], [ -77.0945, -2.3364 ], [ -77.3426, -2.1648 ], [ -77.6291, -2.0414 ], [ -77.7112, -2.0241 ], [ -77.8181, -1.9235 ], [ -77.9192, -1.6622 ], [ -78.0289, -1.6613 ], [ -78.0631, -1.535 ], [ -78.1751, -1.4454 ] ] ] ] } },
{ "type": "Feature", "properties": { "dpa_provincia": "15", "provincia": "Napo", "area_km2": 12714.794645248799 }, "geometry": { "type": "MultiPolygon", "coordinates": [ [ [ [ -77.0701, -1.0118 ], [ -77.0457, -0.9128 ], [ -77.1449, -0.8918 ], [ -77.206, -0.811 ], [ -77.5181, -0.9466 ], [ -77.5363, -0.7946 ], [ -77.4944, -0.6967 ], [ -77.6142, -0.5381 ], [ -77.5151, -0.4853 ], [ -77.386, -0.49 ], [ -77.3223, -0.3614 ], [ -77.2535, -0.3074 ], [ -77.2918, -0.1845 ], [ -77.2958, -0.0526 ], [ -77.3631, -0.1415 ], [ -77.4507, -0.1298 ], [ -77.4748, -0.0159 ], [ -77.5843, -0.096 ], [ -77.7745, -0.0658 ], [ -77.8433, 0.0316 ], [ -77.9296, -0.0906 ], [ -78.1918, -0.2195 ], [ -78.1856, -0.2826 ], [ -78.2489, -0.3991 ], [ -78.2394, -0.4639 ], [ -78.3376, -0.6587 ], [ -78.4135, -0.7109 ], [ -78.3947, -0.8475 ], [ -78.4106, -0.994 ], [ -78.3432, -1.1045 ], [ -78.2244, -1.1412 ], [ -78.1217, -1.2204 ], [ -77.951, -1.2063 ], [ -77.8912, -1.2411 ], [ -77.6898, -1.1436 ], [ -77.5652, -1.1528 ], [ -77.4091, -1.0802 ], [ -77.0701, -1.0118 ] ] ] ] } },
{ "type": "Feature", "properties": { "dpa_provincia": "22", "provincia": "Orellana", "area_km2": 21584.394002309546 }, "geometry": { "type": "MultiPolygon", "coordinates": [ [ [ [ -75.5793, -1.551 ], [ -75.5527, -1.5396 ], [ -75.4052, -1.0249 ], [ -75.3624, -0.9218 ], [ -75.2784, -0.9837 ], [ -75.1926, -0.972 ], [ -75.2415, -0.7561 ], [ -75.2418, -0.6383 ], [ -75.5014, -0.5538 ], [ -75.6397, -0.4485 ], [ -75.7365, -0.4138 ], [ -75.8335, -0.4359 ], [ -75.9549, -0.5598 ], [ -76.0687, -0.4451 ], [ -76.2563, -0.4443 ], [ -76.3706, -0.5171 ], [ -76.5477, -0.4093 ], [ -76.6035, -0.4293 ], [ -76.7172, -0.3399 ], [ -76.9009, -0.0814 ], [ -77.0462, -0.1063 ], [ -77.1933, -0.0929 ], [ -77.2958, -0.0526 ], [ -77.2918, -0.1845 ], [ -77.2535, -0.3074 ], [ -77.3223, -0.3614 ], [ -77.386, -0.49 ], [ -77.5151, -0.4853 ], [ -77.6142, -0.5381 ], [ -77.4944, -0.6967 ], [ -77.5363, -0.7946 ], [ -77.5181, -0.9466 ], [ -77.206, -0.811 ], [ -77.1449, -0.8918 ], [ -77.0457, -0.9128 ], [ -77.0701, -1.0118 ], [ -77.0391, -1.0966 ], [ -76.9072, -1.1142 ], [ -76.8804, -1.0649 ], [ -76.7274, -1.0303 ], [ -76.6054, -1.0714 ], [ -76.5132, -1.0611 ], [ -76.525, -1.1958 ], [ -76.4442, -1.2683 ], [ -76.3349, -1.3035 ], [ -76.1096, -1.2738 ], [ -75.9459, -1.3544 ], [ -75.8918, -1.3392 ], [ -75.5793, -1.551 ] ] ] ] } },
{ "type": "Feature", "properties": { "dpa_provincia": "20", "provincia": "Galápagos", "area_km2": 7687.9325758248024 }, "geometry": { "type": "MultiPolygon", "coordinates": [ [ [ [ -89.4787, -0.9237 ], [ -89.2511, -0.7134 ], [ -89.3165, -0.6788 ], [ -89.4246, -0.7104 ], [ -89.6037, -0.9077 ], [ -89.4787, -0.9237 ] ] ], [ [ [ -90.2678, -0.5066 ], [ -90.4145, -0.5019 ], [ -90.5326, -0.5802 ], [ -90.5292, -0.6983 ], [ -90.3726, -0.7734 ], [ -90.251, -0.7426 ], [ -90.1835, -0.5642 ], [ -90.2678, -0.5066 ] ] ], [ [ [ -91.4273, -0.2864 ], [ -91.4914, -0.2674 ], [ -91.6545, -0.302 ], [ -91.6324, -0.4132 ], [ -91.5645, -0.4898 ], [ -91.4373, -0.4841 ], [ -91.375, -0.3729 ], [ -91.4273, -0.2864 ] ] ], [ [ [ -90.5439, -0.3184 ], [ -90.614, -0.2185 ], [ -90.7693, -0.1441 ], [ -90.8616, -0.2678 ], [ -90.8206, -0.34 ], [ -90.5875, -0.3824 ], [ -90.5439, -0.3184 ] ] ], [ [ [ -91.2556, 0.0106 ], [ -91.3575, 0.1559 ], [ -91.4868, 0.1023 ], [ -91.5446, 0.0255 ], [ -91.4092, -0.0395 ], [ -91.3594, -0.2993 ], [ -91.2442, -0.386 ], [ -91.2172, -0.4685 ], [ -91.0746, -0.6035 ], [ -91.1423, -0.6894 ], [ -91.3206, -0.7042 ], [ -91.5035, -0.8639 ], [ -91.5104, -0.9183 ], [ -91.4161, -1.0023 ], [ -91.2012, -1.0525 ], [ -90.9514, -0.9974 ], [ -90.8518, -0.9065 ], [ -90.8004, -0.7635 ], [ -90.9624, -0.5784 ], [ -90.9453, -0.4567 ], [ -91.1376, -0.2896 ], [ -91.1982, -0.1791 ], [ -91.1906, -0.0734 ], [ -91.2556, 0.0106 ] ] ] ] } }
]
}
